NORAD_CAT_ID,OBJECT_NAME,OBJECT_TYPE,EPOCH,MEAN_MOTION,ECCENTRICITY,INCLINATION,RA_OF_ASC_NODE,ARG_OF_PERICENTER,MEAN_ANOMALY,BSTAR,MEAN_MOTION_DOT,MEAN_MOTION_DDOT,TLE_LINE0,TLE_LINE1,TLE_LINE2,SEMIMAJOR_AXIS,PERIOD,APOGEE,PERIGEE,DECAYED
51801.0,STARLINK-3592,PAYLOAD,2024-03-10 13:57:39,15.08836789,0.0001511,53.2191,22.211,83.128,276.9884,-0.00018193,-3.182e-05,0.0,0 STARLINK-3592,1 51801U 22017AK  24070.58170735 -.00003182  00000-0 -18193-3 0  9997,2 51801  53.2191  22.2110 0001511  83.1280 276.9884 15.08836789113853,6917.89,95.438,540.8,538.71,0.0
51801.0,STARLINK-3592,PAYLOAD,2024-03-10 20:19:13,15.0882359,0.0002323,53.2181,21.0239,81.8041,278.3215,-3.6371e-05,-8.67e-06,0.0,0 STARLINK-3592,1 51801U 22017AK  24070.84667861 -.00000867  00000-0 -36371-4 0  9993,2 51801  53.2181  21.0239 0002323  81.8041 278.3215 15.08823590113897,6917.931,95.439,541.403,538.189,0.0
51801.0,STARLINK-3592,PAYLOAD,2024-03-11 04:16:09,15.08816926,0.000165,53.2184,19.5369,83.8672,276.2508,-8.0886e-05,-1.574e-05,0.0,0 STARLINK-3592,1 51801U 22017AK  24071.17788718 -.00001574  00000-0 -80886-4 0  9991,2 51801  53.2184  19.5369 0001650  83.8672 276.2508 15.08816926113943,6917.951,95.439,540.957,538.674,0.0
51801.0,STARLINK-3592,PAYLOAD,2024-03-11 13:48:27,15.08827058,0.000178,53.219,17.7496,94.7145,265.4051,-7.9853e-06,-4.15e-06,0.0,0 STARLINK-3592,1 51801U 22017AK  24071.57531805 -.00000415  00000-0 -79853-5 0  9994,2 51801  53.2190  17.7496 0001780  94.7145 265.4051 15.08827058114000,6917.92,95.438,541.016,538.554,0.0
51801.0,STARLINK-3592,PAYLOAD,2024-03-11 20:09:59,15.08839066,0.0001545,53.2181,16.5613,86.8321,273.2848,0.00015184,2.129e-05,0.0,0 STARLINK-3592,1 51801U 22017AK  24071.84027348  .00002129  00000-0  15184-3 0  9993,2 51801  53.2181  16.5613 0001545  86.8321 273.2848 15.08839066114042,6917.883,95.438,540.817,538.679,0.0
51801.0,STARLINK-3592,PAYLOAD,2024-03-12 05:42:17,15.08857123,0.0001444,53.2172,14.7777,88.952,271.1637,0.00062551,9.686e-05,0.0,0 STARLINK-3592,1 51801U 22017AK  24072.23770814  .00009686  00000-0  62551-3 0  9995,2 51801  53.2172  14.7777 0001444  88.9520 271.1637 15.08857123114109,6917.828,95.436,540.692,538.694,0.0
51801.0,STARLINK-3592,PAYLOAD,2024-03-12 13:39:14,15.08850114,0.0001443,53.2168,13.2921,77.3076,282.8078,0.00063925,9.903e-05,0.0,0 STARLINK-3592,1 51801U 22017AK  24072.56891293  .00009903  00000-0  63925-3 0  9994,2 51801  53.2168  13.2921 0001443  77.3076 282.8078 15.08850114114152,6917.849,95.437,540.713,538.716,0.0
51801.0,STARLINK-3592,PAYLOAD,2024-03-13 05:33:04,15.08854743,0.0001565,53.2196,10.3131,106.6109,253.5055,0.00039555,6.015e-05,0.0,0 STARLINK-3592,1 51801U 22017AK  24073.23130556  .00006015  00000-0  39555-3 0  9990,2 51801  53.2196  10.3131 0001565 106.6109 253.5055 15.08854743114255,6917.835,95.437,540.783,538.618,0.0
51801.0,STARLINK-3592,PAYLOAD,2024-03-13 19:51:32,15.08849669,0.0001405,53.2186,7.6402,85.4818,274.6335,1.4198e-05,-6.2e-07,0.0,0 STARLINK-3592,1 51801U 22017AK  24073.82746440 -.00000062  00000-0  14198-4 0  9994,2 51801  53.2186   7.6402 0001405  85.4818 274.6335 15.08849669114344,6917.851,95.437,540.688,538.744,0.0
51801.0,STARLINK-3592,PAYLOAD,2024-03-13 23:02:18,15.08853574,0.0001469,53.2176,7.0451,100.1751,259.9407,9.0433e-05,1.152e-05,0.0,0 STARLINK-3592,1 51801U 22017AK  24073.95994092  .00001152  00000-0  90433-4 0  9992,2 51801  53.2176   7.0451 0001469 100.1751 259.9407 15.08853574114360,6917.839,95.437,540.72,538.688,0.0
51801.0,STARLINK-3592,PAYLOAD,2024-03-14 05:23:51,15.0885741,0.000144,53.2181,5.8555,92.3355,267.7802,0.00026499,3.934e-05,0.0,0 STARLINK-3592,1 51801U 22017AK  24074.22489895  .00003934  00000-0  26499-3 0  9993,2 51801  53.2181   5.8555 0001440  92.3355 267.7802 15.08857410114402,6917.827,95.436,540.688,538.696,0.0
51801.0,STARLINK-3592,PAYLOAD,2024-03-14 19:42:19,15.08842842,0.0001478,53.2182,3.1798,96.1738,263.9422,0.00012061,1.632e-05,0.0,0 STARLINK-3592,1 51801U 22017AK  24074.82106322  .00001632  00000-0  12061-3 0  9993,2 51801  53.2182   3.1798 0001478  96.1738 263.9422 15.08842842114499,6917.872,95.437,540.759,538.714,0.0
51801.0,STARLINK-3592,PAYLOAD,2024-03-15 22:43:53,15.08841869,0.0001385,53.2175,358.1221,98.6482,261.4667,0.00015714,2.214e-05,0.0,0 STARLINK-3592,1 51801U 22017AK  24075.94714431  .00002214  00000-0  15714-3 0  9998,2 51801  53.2175 358.1221 0001385  98.6482 261.4667 15.08841869114666,6917.875,95.437,540.698,538.782,0.0
51801.0,STARLINK-3592,PAYLOAD,2024-03-16 03:30:02,15.08850245,0.0001395,53.2176,357.2305,92.5622,267.5529,0.00025203,3.726e-05,0.0,0 STARLINK-3592,1 51801U 22017AK  24076.14586070  .00003726  00000-0  25203-3 0  9990,2 51801  53.2176 357.2305 0001395  92.5622 267.5529 15.08850245114695,6917.849,95.437,540.679,538.749,0.0
51801.0,STARLINK-3592,PAYLOAD,2024-03-16 22:34:40,15.08837021,0.0002066,53.2182,353.6686,63.83,296.2904,6.4693e-05,7.41e-06,0.0,0 STARLINK-3592,1 51801U 22017AK  24076.94074959  .00000741  00000-0  64693-4 0  9997,2 51801  53.2182 353.6686 0002066  63.8300 296.2904 15.08837021114811,6917.889,95.438,541.184,538.325,0.0
51801.0,STARLINK-3592,PAYLOAD,2024-03-17 03:20:49,15.088382,0.0001535,53.2177,352.7729,89.724,270.3928,5.9524e-05,6.59e-06,0.0,0 STARLINK-3592,1 51801U 22017AK  24077.13946731  .00000659  00000-0  59524-4 0  9990,2 51801  53.2177 352.7729 0001535  89.7240 270.3928 15.08838200114845,6917.886,95.438,540.813,538.689,0.0
51801.0,STARLINK-3592,PAYLOAD,2024-03-17 22:25:27,15.08843618,0.0001559,53.2185,349.2054,87.9201,272.1969,9.0855e-05,1.158e-05,0.0,0 STARLINK-3592,1 51801U 22017AK  24077.93434624  .00001158  00000-0  90855-4 0  9998,2 51801  53.2185 349.2054 0001559  87.9201 272.1969 15.08843618114966,6917.869,95.437,540.813,538.656,0.0
51801.0,STARLINK-3592,PAYLOAD,2024-03-18 03:11:36,15.08851934,0.0001489,53.2181,348.308,86.3496,273.7666,0.00025521,3.777e-05,0.0,0 STARLINK-3592,1 51801U 22017AK  24078.13306191  .00003777  00000-0  25521-3 0  9994,2 51801  53.2181 348.3080 0001489  86.3496 273.7666 15.08851934114996,6917.844,95.437,540.739,538.679,0.0
51801.0,STARLINK-3592,PAYLOAD,2024-03-18 17:30:05,15.08839767,0.0001865,53.2179,345.6366,75.5715,284.5484,0.0001178,1.587e-05,0.0,0 STARLINK-3592,1 51801U 22017AK  24078.72923009  .00001587  00000-0  11780-3 0  9991,2 51801  53.2179 345.6366 0001865  75.5715 284.5484 15.08839767115081,6917.881,95.438,541.036,538.456,0.0
51801.0,STARLINK-3592,PAYLOAD,2024-03-18 22:16:14,15.08840366,0.0001765,53.2181,344.7389,111.9497,248.1683,9.0296e-05,1.149e-05,0.0,0 STARLINK-3592,1 51801U 22017AK  24078.92794753  .00001149  00000-0  90296-4 0  9999,2 51801  53.2181 344.7389 0001765 111.9497 248.1683 15.08840366115118,6917.879,95.438,540.965,538.523,0.0
51801.0,STARLINK-3592,PAYLOAD,2024-03-19 03:02:24,15.08848039,0.0001526,53.2183,343.8487,83.2211,276.8955,0.00029862,4.469e-05,0.0,0 STARLINK-3592,1 51801U 22017AK  24079.12666783  .00004469  00000-0  29862-3 0  9991,2 51801  53.2183 343.8487 0001526  83.2211 276.8955 15.08848039115147,6917.856,95.437,540.776,538.665,0.0
51801.0,STARLINK-3592,PAYLOAD,2024-03-19 22:07:01,15.08848907,0.0001407,53.218,340.2792,92.5659,267.5495,0.00028846,4.307e-05,0.0,0 STARLINK-3592,1 51801U 22017AK  24079.92154633  .00004307  00000-0  28846-3 0  9997,2 51801  53.2180 340.2792 0001407  92.5659 267.5495 15.08848907115264,6917.853,95.437,540.692,538.745,0.0
51801.0,STARLINK-3592,PAYLOAD,2024-03-19 23:42:24,15.08850308,0.0001486,53.2178,339.9823,84.6736,275.4426,0.00032997,4.969e-05,0.0,0 STARLINK-3592,1 51801U 22017AK  24079.98778633  .00004969  00000-0  32997-3 0  9991,2 51801  53.2178 339.9823 0001486  84.6736 275.4426 15.08850308115277,6917.849,95.437,540.742,538.686,0.0
51801.0,STARLINK-3592,PAYLOAD,2024-03-20 20:22:25,15.08841943,0.0001337,53.218,336.1162,110.4349,249.6786,0.0001387,1.92e-05,0.0,0 STARLINK-3592,1 51801U 22017AK  24080.84890881  .00001920  00000-0  13870-3 0  9991,2 51801  53.2180 336.1162 0001337 110.4349 249.6786 15.08841943115400,6917.874,95.437,540.664,538.815,0.0
51801.0,STARLINK-3592,PAYLOAD,2024-03-20 21:57:48,15.08842664,0.0001425,53.2178,335.8186,114.2358,245.8784,0.00013568,1.872e-05,0.0,0 STARLINK-3592,1 51801U 22017AK  24080.91514869  .00001872  00000-0  13568-3 0  9998,2 51801  53.2178 335.8186 0001425 114.2358 245.8784 15.08842664115417,6917.872,95.437,540.723,538.751,0.0
51801.0,STARLINK-3592,PAYLOAD,2024-03-20 23:33:12,15.08841218,0.0001349,53.2177,335.5239,107.5022,252.6118,9.4279e-05,1.213e-05,0.0,0 STARLINK-3592,1 51801U 22017AK  24080.98138939  .00001213  00000-0  94279-4 0  9993,2 51801  53.2177 335.5239 0001349 107.5022 252.6118 15.08841218115422,6917.877,95.437,540.675,538.808,0.0
51801.0,STARLINK-3592,PAYLOAD,2024-03-21 21:48:35,15.08847357,0.0001407,53.2178,331.3668,111.0307,249.0836,0.000193,2.786e-05,0.0,0 STARLINK-3592,1 51801U 22017AK  24081.90874963  .00002786  00000-0  19300-3 0  9997,2 51801  53.2178 331.3668 0001407 111.0307 249.0836 15.08847357115566,6917.858,95.437,540.696,538.75,0.0
51801.0,STARLINK-3592,PAYLOAD,2024-03-22 02:34:44,15.08857299,0.0001507,53.2174,330.4678,116.2021,243.9126,0.00037546,5.695e-05,0.0,0 STARLINK-3592,1 51801U 22017AK  24082.10746451  .00005695  00000-0  37546-3 0  9994,2 51801  53.2174 330.4678 0001507 116.2021 243.9126 15.08857299115598,6917.828,95.436,540.735,538.65,0.0
51801.0,STARLINK-3592,PAYLOAD,2024-03-22 20:03:59,15.08848126,0.0001432,53.217,327.1933,109.573,250.5417,0.00026152,3.877e-05,0.0,0 STARLINK-3592,1 51801U 22017AK  24082.83610645  .00003877  00000-0  26152-3 0  9990,2 51801  53.2170 327.1933 0001432 109.5730 250.5417 15.08848126115709,6917.856,95.437,540.711,538.73,0.0
51801.0,STARLINK-3592,PAYLOAD,2024-03-22 21:39:22,15.08849436,0.0001422,53.2169,326.8977,106.5975,253.5173,0.00027992,4.171e-05,0.0,0 STARLINK-3592,1 51801U 22017AK  24082.90234605  .00004171  00000-0  27992-3 0  9997,2 51801  53.2169 326.8977 0001422 106.5975 253.5173 15.08849436115716,6917.852,95.437,540.7,538.733,0.0
